{
  "norad_id": 58281,
  "name": "AETHER-1",
  "history": [
    {
      "epoch": "2026-03-28T18:18:19.037376Z",
      "apogee_km": 382.4520460716012,
      "perigee_km": 378.2419160604368,
      "latitude_deg": -9.764894855100357e-06,
      "longitude_deg": 76.66627151403607,
      "height_km": 383.71034214086785,
      "semi_major_axis_km": 6758.483981066019,
      "eccentricity": 0.00031147,
      "inclination_deg": 97.3843,
      "raan_deg": 177.4241,
      "arg_perigee_deg": 96.0029,
      "mean_anomaly_deg": 264.1584,
      "mean_motion_rev_day": 15.62531671
    },
    {
      "epoch": "2026-03-29T05:03:49.616352Z",
      "apogee_km": 382.09153787705145,
      "perigee_km": 377.9001438891346,
      "latitude_deg": -3.502930804478243e-05,
      "longitude_deg": -84.68547327047173,
      "height_km": 383.3101766523455,
      "semi_major_axis_km": 6758.132840883092,
      "eccentricity": 0.0003101,
      "inclination_deg": 97.3844,
      "raan_deg": 177.8916,
      "arg_perigee_deg": 94.679,
      "mean_anomaly_deg": 265.4822,
      "mean_motion_rev_day": 15.62653452
    },
    {
      "epoch": "2026-03-29T23:30:18.483840Z",
      "apogee_km": 381.4250352672698,
      "perigee_km": 377.4731989059983,
      "latitude_deg": -7.122865120052778e-06,
      "longitude_deg": -1.2611170947958852,
      "height_km": 382.6699031075113,
      "semi_major_axis_km": 6757.586117086634,
      "eccentricity": 0.0002924,
      "inclination_deg": 97.3846,
      "raan_deg": 178.6936,
      "arg_perigee_deg": 92.2293,
      "mean_anomaly_deg": 267.93,
      "mean_motion_rev_day": 15.62843096
    },
    {
      "epoch": "2026-03-30T05:39:06.335136Z",
      "apogee_km": 381.2523411639622,
      "perigee_km": 377.3060101173878,
      "latitude_deg": 2.0771034635837704e-05,
      "longitude_deg": -93.44563374088365,
      "height_km": 382.4706433586092,
      "semi_major_axis_km": 6757.416175640675,
      "eccentricity": 0.000292,
      "inclination_deg": 97.3848,
      "raan_deg": 178.9609,
      "arg_perigee_deg": 91.3787,
      "mean_anomaly_deg": 268.7806,
      "mean_motion_rev_day": 15.62902052
    },
    {
      "epoch": "2026-03-30T05:39:06.336000Z",
      "apogee_km": 381.2522060156389,
      "perigee_km": 377.3061452657121,
      "latitude_deg": 2.3058238267535966e-05,
      "longitude_deg": -93.44563764551796,
      "height_km": 382.4706401057409,
      "semi_major_axis_km": 6757.416175640675,
      "eccentricity": 0.00029198,
      "inclination_deg": 97.3848,
      "raan_deg": 178.9609,
      "arg_perigee_deg": 91.3787,
      "mean_anomaly_deg": 268.7806,
      "mean_motion_rev_day": 15.62902052
    },
    {
      "epoch": "2026-03-30T19:28:51.109824Z",
      "apogee_km": 380.7291691021328,
      "perigee_km": 377.09158021845815,
      "latitude_deg": -4.422983488014403e-05,
      "longitude_deg": 59.15227297885465,
      "height_km": 381.972870690669,
      "semi_major_axis_km": 6757.047374660296,
      "eccentricity": 0.00026917,
      "inclination_deg": 97.3848,
      "raan_deg": 179.5633,
      "arg_perigee_deg": 87.4135,
      "mean_anomaly_deg": 272.7431,
      "mean_motion_rev_day": 15.63030009
    },
    {
      "epoch": "2026-03-31T12:22:53.342688Z",
      "apogee_km": 380.27706506170216,
      "perigee_km": 376.67795164539166,
      "latitude_deg": -3.489403089385515e-05,
      "longitude_deg": 165.68458530738846,
      "height_km": 381.46144436935805,
      "semi_major_axis_km": 6756.614508353547,
      "eccentricity": 0.00026634,
      "inclination_deg": 97.3847,
      "raan_deg": 180.299,
      "arg_perigee_deg": 84.8706,
      "mean_anomaly_deg": 275.2856,
      "mean_motion_rev_day": 15.63180216
    },
    {
      "epoch": "2026-04-01T12:57:40.874688Z",
      "apogee_km": 379.62204278161335,
      "perigee_km": 376.146745376499,
      "latitude_deg": 5.3245033399183675e-06,
      "longitude_deg": 157.04707207822045,
      "height_km": 380.70429281093635,
      "semi_major_axis_km": 6756.021394079055,
      "eccentricity": 0.0002572,
      "inclination_deg": 97.3846,
      "raan_deg": 181.369,
      "arg_perigee_deg": 79.207,
      "mean_anomaly_deg": 280.9478,
      "mean_motion_rev_day": 15.63386069
    },
    {
      "epoch": "2026-04-02T12:00:06.402240Z",
      "apogee_km": 378.9139714179355,
      "perigee_km": 375.46713308767266,
      "latitude_deg": -9.104652948162013e-06,
      "longitude_deg": 171.49837345032134,
      "height_km": 379.94093039793955,
      "semi_major_axis_km": 6755.327552252804,
      "eccentricity": 0.00025512,
      "inclination_deg": 97.3845,
      "raan_deg": 182.3729,
      "arg_perigee_deg": 76.7398,
      "mean_anomaly_deg": 283.4145,
      "mean_motion_rev_day": 15.63626939
    },
    {
      "epoch": "2026-04-03T18:42:55.977120Z",
      "apogee_km": 377.5700014518743,
      "perigee_km": 374.3942146472682,
      "latitude_deg": -3.117218511121406e-05,
      "longitude_deg": 70.86834483855043,
      "height_km": 378.56109180924244,
      "semi_major_axis_km": 6754.119108049571,
      "eccentricity": 0.0002351,
      "inclination_deg": 97.384,
      "raan_deg": 183.7108,
      "arg_perigee_deg": 69.0498,
      "mean_anomaly_deg": 291.1012,
      "mean_motion_rev_day": 15.64046603
    },
    {
      "epoch": "2026-04-04T19:16:52.521024Z",
      "apogee_km": 376.6788420313269,
      "perigee_km": 373.6142019690433,
      "latitude_deg": -4.7596962378379756e-05,
      "longitude_deg": 62.44516885224857,
      "height_km": 377.5979388498348,
      "semi_major_axis_km": 6753.283522000185,
      "eccentricity": 0.0002269,
      "inclination_deg": 97.384,
      "raan_deg": 184.7821,
      "arg_perigee_deg": 62.9857,
      "mean_anomaly_deg": 297.1633,
      "mean_motion_rev_day": 15.64336892
    },
    {
      "epoch": "2026-04-05T04:29:31.791264Z",
      "apogee_km": 376.3081204407026,
      "perigee_km": 373.3366832447027,
      "latitude_deg": 5.667670744057768e-05,
      "longitude_deg": -75.6952496735139,
      "height_km": 377.2718382182479,
      "semi_major_axis_km": 6752.959401842702,
      "eccentricity": 0.00022001,
      "inclination_deg": 97.3837,
      "raan_deg": 185.1836,
      "arg_perigee_deg": 61.9668,
      "mean_anomaly_deg": 298.1814,
      "mean_motion_rev_day": 15.64449518
    },
    {
      "epoch": "2026-04-05T18:18:26.898048Z",
      "apogee_km": 375.8755195236281,
      "perigee_km": 372.9206101792488,
      "latitude_deg": -1.3330111320168073e-05,
      "longitude_deg": 77.11087220080809,
      "height_km": 376.7316797961099,
      "semi_major_axis_km": 6752.535064851438,
      "eccentricity": 0.0002188,
      "inclination_deg": 97.3832,
      "raan_deg": 185.7867,
      "arg_perigee_deg": 56.5455,
      "mean_anomaly_deg": 303.6013,
      "mean_motion_rev_day": 15.64596988
    },
    {
      "epoch": "2026-04-06T05:03:06.358464Z",
      "apogee_km": 375.4858077379886,
      "perigee_km": 372.64569621645205,
      "latitude_deg": -4.499041925365015e-05,
      "longitude_deg": -84.02629556535966,
      "height_km": 376.39158677474916,
      "semi_major_axis_km": 6752.20275197722,
      "eccentricity": 0.00021031,
      "inclination_deg": 97.3829,
      "raan_deg": 186.2552,
      "arg_perigee_deg": 54.5995,
      "mean_anomaly_deg": 305.546,
      "mean_motion_rev_day": 15.64712493
    },
    {
      "epoch": "2026-04-07T05:36:26.208288Z",
      "apogee_km": 374.70330368082705,
      "perigee_km": 371.91063639705953,
      "latitude_deg": -7.2175081598231335e-06,
      "longitude_deg": -92.29586979578444,
      "height_km": 375.4769962764518,
      "semi_major_axis_km": 6751.443970038943,
      "eccentricity": 0.00020682,
      "inclination_deg": 97.3828,
      "raan_deg": 187.3268,
      "arg_perigee_deg": 45.4741,
      "mean_anomaly_deg": 314.6687,
      "mean_motion_rev_day": 15.64976283
    },
    {
      "epoch": "2026-04-07T17:53:01.309920Z",
      "apogee_km": 374.4150688761074,
      "perigee_km": 371.66328946547765,
      "latitude_deg": -2.984287770324635e-05,
      "longitude_deg": 83.59020028353333,
      "height_km": 375.13497377051533,
      "semi_major_axis_km": 6751.176179170792,
      "eccentricity": 0.0002038,
      "inclination_deg": 97.3828,
      "raan_deg": 187.8633,
      "arg_perigee_deg": 40.0144,
      "mean_anomaly_deg": 320.1265,
      "mean_motion_rev_day": 15.65069398
    },
    {
      "epoch": "2026-04-08T04:37:29.629056Z",
      "apogee_km": 374.1281175730437,
      "perigee_km": 371.4245118087756,
      "latitude_deg": -1.9142271479146845e-05,
      "longitude_deg": -77.50062423714265,
      "height_km": 374.87364680984734,
      "semi_major_axis_km": 6750.913314690909,
      "eccentricity": 0.00020024,
      "inclination_deg": 97.3822,
      "raan_deg": 188.3316,
      "arg_perigee_deg": 38.871,
      "mean_anomaly_deg": 321.2693,
      "mean_motion_rev_day": 15.65160809
    },
    {
      "epoch": "2026-04-09T18:58:52.995360Z",
      "apogee_km": 373.2510174713507,
      "perigee_km": 370.5510022674034,
      "latitude_deg": 1.7752672402728385e-05,
      "longitude_deg": 67.25206151934862,
      "height_km": 373.85632030467656,
      "semi_major_axis_km": 6750.038009869377,
      "eccentricity": 0.0002,
      "inclination_deg": 97.3824,
      "raan_deg": 190.0069,
      "arg_perigee_deg": 27.6915,
      "mean_anomaly_deg": 332.4451,
      "mean_motion_rev_day": 15.6546526
    },
    {
      "epoch": "2026-04-10T04:11:08.641248Z",
      "apogee_km": 372.8703190428405,
      "perigee_km": 370.36872428078277,
      "latitude_deg": -5.675342471867565e-05,
      "longitude_deg": -70.78963016710664,
      "height_km": 373.6381856493883,
      "semi_major_axis_km": 6749.756521661811,
      "eccentricity": 0.00018531,
      "inclination_deg": 97.3825,
      "raan_deg": 190.4084,
      "arg_perigee_deg": 25.1296,
      "mean_anomaly_deg": 335.0053,
      "mean_motion_rev_day": 15.65563189
    }
  ]
}